IRIDIUM 7               
1 24793U 97020B   24197.88209909  .00000686  00000+0  23271-3 0  9998
2 24793  86.3979 317.8139 0002277  99.1649 260.9805 14.35291964423640
IRIDIUM 5               
1 24795U 97020D   24198.19750230  .00004590  00000+0  43427-3 0  9996
2 24795  86.3906 237.8168 0118462 258.9379  99.8506 14.88181582435411
IRIDIUM 4               
1 24796U 97020E   24197.87044916  .00000704  00000+0  23483-3 0  9991
2 24796  86.3974 314.9185 0002075  97.5028 262.6405 14.36219270424216
IRIDIUM 914             
1 24836U 97030A   24197.82418467  .00000835  00000+0  25849-3 0  9991
2 24836  86.3959 324.5350 0000857 146.9979 213.1274 14.40086651558702
IRIDIUM 16              
1 24841U 97030F   24197.91165309  .00000825  00000+0  26671-3 0  9994
2 24841  86.4056 346.5462 0004267  91.0552 269.1134 14.37974668418667
IRIDIUM 911             
1 24842U 97030G   24197.87451237  .00001128  00000+0  30660-3 0  9998
2 24842  86.4481 345.6628 0015834 133.3301 226.9224 14.46634917426422
IRIDIUM 17              
1 24870U 97034B   24197.89888722  .00000756  00000+0  24830-3 0  9996
2 24870  86.3961  16.1302 0003324  66.1038 294.0507 14.37065085415270
